{
  "type": "FeatureCollection",
  "features": [
    {
      "type": "Feature",
      "properties": {
        "norad_id": 41384,
        "name": "IRNSS-1F",
        "group": "gnss",
        "lat": 1.1017401026890508,
        "lon": -91.84678704954572,
        "alt_km": 35694.73842650435,
        "timestamp": "2025-12-03T10:52:57.693555+00:00",
        "meta_object_name": "IRNSS-1F",
        "meta_object_id": "2016-015A",
        "meta_epoch": "2025-12-03T01:55:20.988192",
        "meta_mean_motion": 1.00267525,
        "meta_eccentricity": 0.0022402,
        "meta_inclination": 4.8561,
        "meta_ra_of_asc_node": 101.5395,
        "meta_arg_of_pericenter": 179.5147,
        "meta_mean_anomaly": 212.3606,
        "meta_ephemeris_type": 0,
        "meta_classification_type": "U",
        "meta_norad_cat_id": 41384,
        "meta_element_set_no": 999,
        "meta_rev_at_epoch": 3570,
        "meta_bstar": 0,
        "meta_mean_motion_dot": 1.77e-06,
        "meta_mean_motion_ddot": 0,
        "tle_line1": "1 41384U 16015A   25337.08010403  .00000177  00000+0  00000+0 0  9992",
        "tle_line2": "2 41384   4.8561 101.5395 0022402 179.5147 212.3606  1.00267525 35707"
      },
      "geometry": {
        "type": "Point",
        "coordinates": [
          -91.84678704954572,
          1.1017401026890508
        ]
      }
    },
    {
      "type": "Feature",
      "properties": {
        "norad_id": 41434,
        "name": "BEIDOU-2 IGSO-6 (C13)",
        "group": "gnss",
        "lat": -55.35567218041812,
        "lon": -16.70461108794267,
        "alt_km": 35659.607095667554,
        "timestamp": "2025-12-03T10:52:57.693567+00:00",
        "meta_object_name": "BEIDOU-2 IGSO-6 (C13)",
        "meta_object_id": "2016-021A",
        "meta_epoch": "2025-12-01T15:57:35.287200",
        "meta_mean_motion": 1.00256562,
        "meta_eccentricity": 0.00591323,
        "meta_inclination": 59.9483,
        "meta_ra_of_asc_node": 40.0119,
        "meta_arg_of_pericenter": 231.2834,
        "meta_mean_anomaly": 130.8807,
        "meta_ephemeris_type": 0,
        "meta_classification_type": "U",
        "meta_norad_cat_id": 41434,
        "meta_element_set_no": 999,
        "meta_rev_at_epoch": 3550,
        "meta_bstar": 0,
        "meta_mean_motion_dot": -1.55e-06,
        "meta_mean_motion_ddot": 0,
        "tle_line1": "1 41434U 16021A   25335.66499175 -.00000155  00000+0  00000+0 0  9991",
        "tle_line2": "2 41434  59.9483  40.0119 0059132 231.2834 130.8807  1.00256562 35501"
      },
      "geometry": {
        "type": "Point",
        "coordinates": [
          -16.70461108794267,
          -55.35567218041812
        ]
      }
    },
    {
      "type": "Feature",
      "properties": {
        "norad_id": 41469,
        "name": "IRNSS-1G",
        "group": "gnss",
        "lat": -4.660298618434174,
        "lon": 5.198446891768754,
        "alt_km": 35790.557091684044,
        "timestamp": "2025-12-03T10:52:57.693579+00:00",
        "meta_object_name": "IRNSS-1G",
        "meta_object_id": "2016-027A",
        "meta_epoch": "2025-12-02T20:10:51.611232",
        "meta_mean_motion": 1.00266361,
        "meta_eccentricity": 0.0001391,
        "meta_inclination": 4.7124,
        "meta_ra_of_asc_node": 102.3436,
        "meta_arg_of_pericenter": 15.7856,
        "meta_mean_anomaly": 26.0074,
        "meta_ephemeris_type": 0,
        "meta_classification_type": "U",
        "meta_norad_cat_id": 41469,
        "meta_element_set_no": 999,
        "meta_rev_at_epoch": 3521,
        "meta_bstar": 0,
        "meta_mean_motion_dot": -3.15e-06,
        "meta_mean_motion_ddot": 0,
        "tle_line1": "1 41469U 16027A   25336.84087513 -.00000315  00000+0  00000+0 0  9993",
        "tle_line2": "2 41469   4.7124 102.3436 0001391  15.7856  26.0074  1.00266361 35214"
      },
      "geometry": {
        "type": "Point",
        "coordinates": [
          5.198446891768754,
          -4.660298618434174
        ]
      }
    },
    {
      "type": "Feature",
      "properties": {
        "norad_id": 41549,
        "name": "GSAT0211 (GALILEO 14)",
        "group": "gnss",
        "lat": -5.318437407572227,
        "lon": -136.63096976833285,
        "alt_km": 23212.21120181427,
        "timestamp": "2025-12-03T10:52:57.693591+00:00",
        "meta_object_name": "GSAT0211 (GALILEO 14)",
        "meta_object_id": "2016-030A",
        "meta_epoch": "2025-12-01T16:54:04.942368",
        "meta_mean_motion": 1.70472896,
        "meta_eccentricity": 0.00038995,
        "meta_inclination": 55.1563,
        "meta_ra_of_asc_node": 227.1275,
        "meta_arg_of_pericenter": 10.5053,
        "meta_mean_anomaly": 349.5828,
        "meta_ephemeris_type": 0,
        "meta_classification_type": "U",
        "meta_norad_cat_id": 41549,
        "meta_element_set_no": 999,
        "meta_rev_at_epoch": 5930,
        "meta_bstar": 0,
        "meta_mean_motion_dot": 3.3e-07,
        "meta_mean_motion_ddot": 0,
        "tle_line1": "1 41549U 16030A   25335.70422387  .00000033  00000+0  00000+0 0  9998",
        "tle_line2": "2 41549  55.1563 227.1275 0003899  10.5053 349.5828  1.70472896 59309"
      },
      "geometry": {
        "type": "Point",
        "coordinates": [
          -136.63096976833285,
          -5.318437407572227
        ]
      }
    },
    {
      "type": "Feature",
      "properties": {
        "norad_id": 41550,
        "name": "GSAT0210 (GALILEO 13)",
        "group": "gnss",
        "lat": -12.71696407037135,
        "lon": 56.11156712211512,
        "alt_km": 23221.62945343844,
        "timestamp": "2025-12-03T10:52:57.693605+00:00",
        "meta_object_name": "GSAT0210 (GALILEO 13)",
        "meta_object_id": "2016-030B",
        "meta_epoch": "2025-12-01T09:00:06.320160",
        "meta_mean_motion": 1.70473417,
        "meta_eccentricity": 0.00012162,
        "meta_inclination": 55.1557,
        "meta_ra_of_asc_node": 227.1346,
        "meta_arg_of_pericenter": 241.6156,
        "meta_mean_anomaly": 118.4503,
        "meta_ephemeris_type": 0,
        "meta_classification_type": "U",
        "meta_norad_cat_id": 41550,
        "meta_element_set_no": 999,
        "meta_rev_at_epoch": 5929,
        "meta_bstar": 0,
        "meta_mean_motion_dot": 3.2e-07,
        "meta_mean_motion_ddot": 0,
        "tle_line1": "1 41550U 16030B   25335.37507315  .00000032  00000+0  00000+0 0  9997",
        "tle_line2": "2 41550  55.1557 227.1346 0001216 241.6156 118.4503  1.70473417 59296"
      },
      "geometry": {
        "type": "Point",
        "coordinates": [
          56.11156712211512,
          -12.71696407037135
        ]
      }
    },
    {
      "type": "Feature",
      "properties": {
        "norad_id": 41586,
        "name": "BEIDOU-2 G7 (C03)",
        "group": "gnss",
        "lat": -1.7020386153905878,
        "lon": -13.800187547749285,
        "alt_km": 35785.11794738495,
        "timestamp": "2025-12-03T10:52:57.693617+00:00",
        "meta_object_name": "BEIDOU-2 G7 (C03)",
        "meta_object_id": "2016-037A",
        "meta_epoch": "2025-12-03T02:17:48.835968",
        "meta_mean_motion": 1.00271793,
        "meta_eccentricity": 0.0004426,
        "meta_inclination": 1.7317,
        "meta_ra_of_asc_node": 67.6839,
        "meta_arg_of_pericenter": 4.7785,
        "meta_mean_anomaly": 144.6675,
        "meta_ephemeris_type": 0,
        "meta_classification_type": "U",
        "meta_norad_cat_id": 41586,
        "meta_element_set_no": 999,
        "meta_rev_at_epoch": 492,
        "meta_bstar": 0,
        "meta_mean_motion_dot": -3.35e-06,
        "meta_mean_motion_ddot": 0,
        "tle_line1": "1 41586U 16037A   25337.09570412 -.00000335  00000+0  00000+0 0  9999",
        "tle_line2": "2 41586   1.7317  67.6839 0004426   4.7785 144.6675  1.00271793  4929"
      },
      "geometry": {
        "type": "Point",
        "coordinates": [
          -13.800187547749285,
          -1.7020386153905878
        ]
      }
    },
    {
      "type": "Feature",
      "properties": {
        "norad_id": 41589,
        "name": "EUTELSAT 117 WEST B (WAAS/PRN 131)",
        "group": "gnss",
        "lat": -0.007555862637208874,
        "lon": 118.752887478346,
        "alt_km": 35786.65219577389,
        "timestamp": "2025-12-03T10:52:57.693633+00:00",
        "meta_object_name": "EUTELSAT 117 WEST B (WAAS/PRN 131)",
        "meta_object_id": "2016-038B",
        "meta_epoch": "2025-12-02T23:30:03.059712",
        "meta_mean_motion": 1.00267861,
        "meta_eccentricity": 1.93e-05,
        "meta_inclination": 0.0046,
        "meta_ra_of_asc_node": 146.1916,
        "meta_arg_of_pericenter": 23.0604,
        "meta_mean_anomaly": 138.3396,
        "meta_ephemeris_type": 0,
        "meta_classification_type": "U",
        "meta_norad_cat_id": 41589,
        "meta_element_set_no": 999,
        "meta_rev_at_epoch": 3469,
        "meta_bstar": 0,
        "meta_mean_motion_dot": 8e-08,
        "meta_mean_motion_ddot": 0,
        "tle_line1": "1 41589U 16038B   25336.97920208  .00000008  00000+0  00000+0 0  9997",
        "tle_line2": "2 41589   0.0046 146.1916 0000193  23.0604 138.3396  1.00267861 34691"
      },
      "geometry": {
        "type": "Point",
        "coordinates": [
          118.752887478346,
          -0.007555862637208874
        ]
      }
    }
  ]
}